SARSAT 7 (NOAA 15)      
1 25338U 98030A   17324.56504712  .00000030  00000-0  31286-4 0  9995
2 25338  98.7788 335.7669 0011532 111.1318 249.1095 14.25826666 15290
GPS BIIR-07             
1 26690U 01004A   17324.62169559  .00000045  00000-0  00000-0 0  9997
2 26690  53.0666 151.2914 0183881 258.6209  76.5508  2.00567050123153
METEOSAT-8 (MSG-1)      
1 27509U 02040B   17324.11841946  .00000142  00000-0  00000+0 0  9996
2 27509   5.1101  57.7226 0001068 293.3975 152.4294  1.00281701 55855
GPS BIIR-08             
1 27663U 03005A   17324.25677081 -.00000070  00000-0  00000+0 0  9992
2 27663  56.6448 338.8077 0093703  24.2859 138.6240  2.00580042108506
GPS BIIR-11             
1 28190U 04009A   17324.22520939 -.00000079  00000-0  00000+0 0  9998
2 28190  56.0827  39.7498 0096114  62.1732 234.9374  2.00562570100181
GPS BIIR-12             
1 28361U 04023A   17324.46001459  .00000024  00000-0  00000+0 0  9990
2 28361  54.0823 213.5910 0119954 222.5298 154.6755  2.00566514 98272
GPS BIIR-13             
1 28474U 04045A   17324.52830840 -.00000025  00000-0  00000+0 0  9992
2 28474  54.3319  91.2676 0175475 249.2751 181.3936  2.00569166 95631
SARSAT 10 (NOAA 18)     
1 28654U 05018A   17324.61786187 -.00000002  00000-0  24494-4 0  9990
2 28654  99.1702 350.5658 0014155 356.8269   3.2810 14.12357642644241
GPS BIIR-14M            
1 28874U 05038A   17324.33682091 -.00000079  00000-0  00000+0 0  9990
2 28874  56.2329  37.0287 0123900 255.5160 143.6303  2.00559148 89038
MSG-2                   
1 28912U 05049B   17324.25539635  .00000069  00000-0  00000+0 0  9999
2 28912   2.5091  71.4591 0001855 245.1848 204.6224  1.00282827 43680
GOES 13                 
1 29155U 06018A   17324.04243308 -.00000249  00000-0  00000+0 0  9993
2 29155   0.1775 104.8574 0001580 343.1462 272.0421  1.00273204 42126
SARSAT 11 (METOP-A)     
1 29499U 06044A   17324.63629666  .00000035  00000-0  35605-4 0  9999
2 29499  98.6588  21.4784 0002078  93.9846  30.0741 14.21515936575189
GPS BIIR-16M            
1 29601U 06052A   17324.33767927 -.00000069  00000-0  00000-0 0  9998
2 29601  56.6188 337.7223 0064051  50.7077 309.8920  2.00562653 80618
GPS BIIR-17M            
1 32260U 07047A   17324.15320164  .00000027  00000-0  00000+0 0  9998
2 32260  53.2076 209.8129 0097994  35.3170 325.4206  2.00565955 74040
GPS BIIR-18M            
1 32384U 07062A   17324.63180500 -.00000078  00000-0  00000-0 0  9991
2 32384  56.3014  37.6099 0002690  27.3933  97.2024  2.00552346 72762
SARSAT 12 (NOAA 19)     
1 33591U 09005A   17324.56460859  .00000118  00000-0  89101-4 0  9998
2 33591  99.1145 293.7716 0013701 188.9784 171.1144 14.12230279452465
GOES 14                 
1 35491U 09033A   17324.12471281 -.00000091  00000-0  00000+0 0  9990
2 35491   0.2119 275.5729 0010624 315.2045 129.1560  1.00272344 30760
GOES 15                 
1 36411U 10008A   17324.21004605  .00000091  00000-0  00000+0 0  9998
2 36411   0.1957 272.1019 0004294 268.1622 179.7638  1.00263329 28295
ELEKTRO-L 1             
1 37344U 11001A   17324.33341881 -.00000086  00000-0  00000+0 0  9996
2 37344   2.7546  77.3017 0004018 265.3740  94.2191  1.00156117 25074
GLONASS-K 1             
1 37372U 11009A   17324.74064983 -.00000043  00000-0  00000+0 0  9998
2 37372  65.4769  59.3445 0008547 226.2015 274.7780  2.13107676 52389
GPS BIIF-2              
1 37753U 11036A   17324.40591007 -.00000019  00000-0  00000+0 0  9999
2 37753  55.5351  94.5464 0069958  34.7178  70.3602  2.00563246 46477
GSAT0101 (GALILEO-PFM)  
1 37846U 11060A   17324.24499556 -.00000056  00000-0  00000-0 0  9999
2 37846  55.9474  67.3486 0001916 322.4095  37.5687  1.70473588 37740
GSAT0102 (GALILEO-FM2)  
1 37847U 11060B   17324.27588141 -.00000056  00000-0  00000+0 0  9991
2 37847  55.9480  67.3471 0003381 294.2405 129.3965  1.70475922 37878
LUCH 5A                 
1 37951U 11074B   17324.59424444 -.00000041  00000-0  00000-0 0  9997
2 37951   1.6331 166.5057 0003765  92.5591 181.5988  1.00272134 21792
MSG-3                   
1 38552U 12035B   17323.83711983 -.00000006  00000-0  00000+0 0  9996
2 38552   0.8430  11.9038 0001313 244.3575 103.7509  1.00273063 19827
SARSAT 13 (METOP-B)     
1 38771U 12049A   17324.81357061  .00000031  00000-0  34270-4 0  9994
2 38771  98.7037  22.5467 0001844 131.8986 339.7597 14.21486833268527
GPS BIIF-3              
1 38833U 12053A   17324.24935020 -.00000036  00000-0  00000+0 0  9997
2 38833  54.0627 272.1339 0062165  25.5441 334.7521  2.00564038 37541
GSAT0103 (GALILEO-FM3)  
1 38857U 12055A   17320.18143609  .00000047  00000-0  00000-0 0  9990
2 38857  54.9029 187.8274 0001793 233.4814 126.6071  1.70473867 31712
GSAT0104 (GALILEO-FM4)  
1 38858U 12055B   17323.63519584  .00000053  00000-0  00000+0 0  9999
2 38858  54.9037 187.7307 0000658 213.9343 146.1696  1.70473974 31727
GPS BIIF-4              
1 39166U 13023A   17324.10273750 -.00000081  00000-0  00000+0 0  9995
2 39166  55.9363  34.0023 0049782  18.6186 341.6120  2.00563865 33075
INSAT-3D                
1 39216U 13038B   17323.60861831 -.00000155  00000-0  00000-0 0  9997
2 39216   0.0665  97.6776 0001129 166.0883  96.2486  1.00272666 15716
GPS BIIF-5              
1 39533U 14008A   17323.60474086 -.00000046  00000-0  00000+0 0  9997
2 39533  54.2138 277.4796 0030414 188.9877 170.9423  2.00571578 27426
LUCH 5V                 
1 39727U 14023A   17324.52475186 -.00000267  00000-0  00000-0 0  9999
2 39727   2.4025 299.0137 0002917 339.2248  65.1683  1.00270070531133
GPS BIIF-6              
1 39741U 14026A   17323.89043484 -.00000023  00000-0  00000+0 0  9998
2 39741  55.5202  94.0887 0008746 282.3030  77.5712  2.00550408 25712
GPS BIIF-7              
1 40105U 14045A   17324.47583503  .00000025  00000-0  00000-0 0  9993
2 40105  54.6068 213.5816 0008006 102.8825 257.2950  2.00556326 23315
GSAT0201 (GALILEO 5)    
1 40128U 14050A   17324.37294120 -.00000100  00000-0  00000-0 0  9992
2 40128  50.3864  38.9541 1634842  68.8691 307.8114  1.85520225 20263
GSAT0202 (GALILEO 6)    
1 40129U 14050B   17324.64005330 -.00000099  00000-0  00000+0 0  9992
2 40129  50.4382  37.9458 1635388  69.8458 306.9821  1.85520870 22379
GPS BIIF-8              
1 40294U 14068A   17323.84961528  .00000053  00000-0  00000+0 0  9994
2 40294  55.0253 154.3068 0010169  22.7656 337.3311  2.00570359 22380
GLONASS-K 2             
1 40315U 14075A   17324.13006831 -.00000032  00000-0  00000-0 0  9995
2 40315  64.3309 299.8714 0016589 213.5807 298.9422  2.13098516 23135
GPS BIIF-9              
1 40534U 15013A   17323.98968243 -.00000072  00000-0  00000+0 0  9990
2 40534  54.8680 333.3817 0022832 349.3214  10.6554  2.00576459 19458
GSAT0203 (GALILEO 7)    
1 40544U 15017A   17324.61166301 -.00000054  00000-0  00000+0 0  9991
2 40544  55.7377  67.6062 0003627 223.0772 136.8875  1.70475649 16481
GSAT0204 (GALILEO 8)    
1 40545U 15017B   17324.39456626 -.00000055  00000-0  00000-0 0  9991
2 40545  55.7434  67.6239 0002806 180.3269 179.6647  1.70475815 16494
GPS BIIF-10             
1 40730U 15033A   17324.14503026 -.00000082  00000-0  00000+0 0  9994
2 40730  55.4691  33.6012 0030305 320.1180  39.7088  2.00558522 17212
GSAT0205 (GALILEO 9)    
1 40889U 15045A   17324.04885797 -.00000049  00000-0  00000+0 0  9992
2 40889  56.9021 307.8813 0003162 321.3113  38.6479  1.70474726 13638
GSAT0206 (GALILEO 10)   
1 40890U 15045B   17324.26873274 -.00000048  00000-0  00000+0 0  9994
2 40890  56.9009 307.8723 0002532 291.2169  68.7380  1.70474721 13665
GPS BIIF-11             
1 41019U 15062A   17323.20067895  .00000056  00000-0  00000+0 0  9992
2 41019  55.0325 154.1273 0030213 198.5628 161.3811  2.00564015 15019
GSAT0209 (GALILEO 12)   
1 41174U 15079A   17324.44097382  .00000054  00000-0  00000+0 0  9991
2 41174  54.9162 187.3986 0003428 310.7270  49.3489  1.70473455 11987
GSAT0208 (GALILEO 11)   
1 41175U 15079B   17324.66090404  .00000054  00000-0  00000+0 0  9994
2 41175  54.9144 187.3932 0002510 315.9731  44.1117  1.70473331 11994
GPS BIIF-12             
1 41328U 16007A   17323.79012583  .00000026  00000-0  00000+0 0  9990
2 41328  54.8613 213.8417 0016015 216.2513 143.7265  2.00571255 13083
GSAT0211 (GALILEO 14)   
1 41549U 16030A   17324.19452118 -.00000048  00000-0  00000+0 0  9993
2 41549  57.0408 307.6352 0004629 279.4705  80.4588  1.70474509  9278
GSAT0210 (GALILEO 13)   
1 41550U 16030B   17319.20847609 -.00000053  00000-0  00000-0 0  9991
2 41550  57.0437 307.7727 0004699 255.3000 104.6421  1.70474348  9206
GSAT0207 (GALILEO 15)   
1 41859U 16069A   17324.73456204  .00000053  00000-0  00000+0 0  9994
2 41859  54.5752 187.9899 0002902 293.9740  66.1005  1.70473351  6268
GSAT0212 (GALILEO 16)   
1 41860U 16069B   17324.00135716  .00000053  00000-0  00000-0 0  9999
2 41860  54.5727 188.0110 0002385 327.7785  32.3142  1.70473311  6274
GSAT0213 (GALILEO 17)   
1 41861U 16069C   17320.84831687  .00000048  00000-0  00000+0 0  9991
2 41861  54.5751 188.1012 0001903 254.1968 105.8895  1.70473394  6222
GSAT0214 (GALILEO 18)   
1 41862U 16069D   17324.51453887  .00000053  00000-0  00000+0 0  9998
2 41862  54.5736 187.9956 0001094 259.9916 100.1017  1.70473371  6271
